OBJECT_NAME,OBJECT_ID,EPOCH,MEAN_MOTION,ECCENTRICITY,INCLINATION,RA_OF_ASC_NODE,ARG_OF_PERICENTER,MEAN_ANOMALY,EPHEMERIS_TYPE,CLASSIFICATION_TYPE,NORAD_CAT_ID,ELEMENT_SET_NO,REV_AT_EPOCH,BSTAR,MEAN_MOTION_DOT,MEAN_MOTION_DDOT
IRIDIUM 135,2017-083A,2026-07-04T14:14:55.160736,14.34218311,.00022015,86.3983,314.7383,93.0417,267.1031,0,U,43070,999,44664,.35199162E-4,.118E-5,0
IRIDIUM 138,2017-083B,2026-07-04T14:51:27.127872,14.34218340,.00021405,86.3995,314.4258,88.2714,271.8727,0,U,43071,999,44663,.32645281E-4,.111E-5,0
IRIDIUM 116,2017-083C,2026-07-04T15:46:15.137760,14.34218554,.0002319,86.3982,314.6976,100.6671,259.4786,0,U,43072,999,44667,.43813126E-4,.142E-5,0
IRIDIUM 130,2017-083D,2026-07-04T15:00:35.092224,14.34218114,.00020901,86.3989,314.9877,98.9990,261.1443,0,U,43073,999,44661,.32623675E-4,.111E-5,0
IRIDIUM 151,2017-083E,2026-07-04T14:24:03.164832,14.34218022,.00022288,86.3984,314.7795,94.1643,265.9807,0,U,43074,999,44663,.18221731E-4,.71E-6,0
IRIDIUM 134,2017-083F,2026-07-04T15:18:51.050304,14.34218265,.0002137,86.3985,314.7716,94.3353,265.8087,0,U,43075,999,44660,.91486024E-4,.276E-5,0
IRIDIUM 137,2017-083G,2026-07-04T15:37:07.200192,14.34218250,.00026105,86.3984,314.8595,98.2275,261.9217,0,U,43076,999,44667,.26996934E-4,.95E-6,0
IRIDIUM 141,2017-083H,2026-07-04T15:27:59.169312,14.34217899,.00021854,86.3980,314.6918,91.9032,268.2414,0,U,43077,999,44667,.14228447E-4,.6E-6,0
IRIDIUM 153,2017-083J,2026-07-04T12:38:39.373440,14.34217991,.00021331,86.3964,283.2215,92.9528,267.1912,0,U,43078,999,44776,.1179547E-3,.35E-5,0
IRIDIUM 131,2017-083K,2026-07-04T08:27:51.160608,14.34218106,.00022301,86.3988,315.0009,93.4492,266.6959,0,U,43079,999,44656,.22054852E-4,.82E-6,0
IRIDIUM 144,2018-030A,2026-07-04T12:47:47.430240,14.34217820,.00022908,86.3964,283.1477,97.9112,262.2344,0,U,43249,999,43262,.38981678E-4,.129E-5,0
IRIDIUM 149,2018-030B,2026-07-04T04:34:35.435424,14.34218074,.00022722,86.3962,283.2576,93.3665,266.7791,0,U,43250,999,43259,.24729481E-4,.89E-6,0
IRIDIUM 157,2018-030C,2026-07-04T13:24:19.425888,14.34218098,.00022506,86.3965,283.1574,94.8953,265.2500,0,U,43251,999,43262,.31407577E-4,.108E-5,0
IRIDIUM 140,2018-030D,2026-07-04T12:11:15.400032,14.34218287,.00022183,86.3965,283.1911,95.6153,264.5296,0,U,43252,999,43267,.39647813E-4,.131E-5,0
IRIDIUM 145,2018-030E,2026-07-04T13:33:26.659296,14.34217314,.00023376,86.3966,283.1396,103.9450,256.2006,0,U,43253,999,43261,.11988237E-3,.356E-5,0
IRIDIUM 146,2018-030F,2026-07-04T13:06:03.406464,14.34218199,.00023039,86.3964,283.1596,98.2613,261.8844,0,U,43254,999,43262,.21851884E-4,.81E-6,0
IRIDIUM 148,2018-030G,2026-07-04T12:20:23.448192,14.34218228,.00024016,86.3965,283.2161,95.1443,265.0027,0,U,43255,999,43265,.32215135E-4,.11E-5,0
IRIDIUM 142,2018-030H,2026-07-04T13:15:11.414880,14.34218108,.00023267,86.3963,283.0887,99.5169,260.6290,0,U,43256,999,43262,.12347604E-3,.366E-5,0
IRIDIUM 150,2018-030J,2026-07-04T12:29:31.387488,14.34218597,.0002206,86.3967,283.2190,96.0982,264.0465,0,U,43257,999,43264,.57914205E-4,.182E-5,0
IRIDIUM 143,2018-030K,2026-07-04T12:02:07.255968,14.34216484,.00022773,86.3969,283.3200,98.3411,261.8043,0,U,43258,999,43257,-.12635906E-4,-.16E-6,0
IRIDIUM 161,2018-047C,2026-07-04T10:22:36.901056,14.43282122,.00024091,86.4473,81.2605,79.5132,280.6341,0,U,43478,999,42762,.10239716E-3,.365E-5,0
IRIDIUM 152,2018-047D,2026-07-04T11:22:50.994912,14.34217435,.00022126,86.3949,81.1043,81.7272,278.4174,0,U,43479,999,42496,.12562338E-3,.372E-5,0
IRIDIUM 147,2018-047E,2026-07-04T09:51:29.766816,14.34216834,.00023025,86.3946,81.1356,86.3202,273.8257,0,U,43480,999,42495,.92564513E-4,.279E-5,0
IRIDIUM 110,2018-047F,2026-07-04T10:00:38.270304,14.34217730,.00023289,86.3953,81.2259,76.0453,284.1001,0,U,43481,999,42494,.3105604E-5,.28E-6,0
IRIDIUM 162,2018-047G,2026-07-04T10:13:32.390112,14.43281180,.00022545,86.4472,81.1538,83.7485,276.3973,0,U,43482,999,42761,.12582373E-3,.443E-5,0
IRIDIUM 160,2018-061A,2026-07-04T08:42:38.451456,14.34217871,.00022459,86.3947,49.6143,85.7799,274.3653,0,U,43569,999,41583,.5789692E-5,.36E-6,0
IRIDIUM 166,2018-061B,2026-07-04T07:38:42.439200,14.34218236,.00022268,86.3945,49.5831,89.1325,271.0126,0,U,43570,999,41585,.36366001E-4,.122E-5,0
IRIDIUM 158,2018-061C,2026-07-04T08:33:30.352320,14.34218966,.00021385,86.3945,49.5771,85.2890,274.8550,0,U,43571,999,41582,.67200948E-4,.208E-5,0
IRIDIUM 165,2018-061D,2026-07-04T09:10:02.413632,14.34218107,.00021769,86.3947,49.6133,89.9813,270.1632,0,U,43572,999,41585,.17600602E-4,.69E-6,0
IRIDIUM 155,2018-061E,2026-07-04T08:15:14.176512,14.34219697,.00020602,86.3941,49.4971,86.8473,273.2959,0,U,43573,999,41581,.73729256E-4,.226E-5,0
